CCSDS_OMM_VERS = 2.0
CREATION_DATE  = 
ORIGINATOR     = 

OBJECT_NAME    = COSMOS 1933
OBJECT_ID      = 1988-020A
CENTER_NAME    = EARTH
REF_FRAME      = TEME
TIME_SYSTEM    = UTC
MEAN_ELEMENT_THEORY = SGP/SGP4

EPOCH          = 2026-02-17T02:09:54.593280
MEAN_MOTION    = 15.17799566
ECCENTRICITY   = .00026534
INCLINATION    = 82.5109
RA_OF_ASC_NODE = 271.2951
ARG_OF_PERICENTER = 276.6134
MEAN_ANOMALY   = 83.4798

EPHEMERIS_TYPE = 0
CLASSIFICATION_TYPE = U
NORAD_CAT_ID   = 18958
ELEMENT_SET_NO = 999
REV_AT_EPOCH   = 4710
BSTAR          = .24644577E-3
MEAN_MOTION_DOT = .501E-4
MEAN_MOTION_DDOT = 0

CCSDS_OMM_VERS = 2.0
CREATION_DATE  = 
ORIGINATOR     = 

OBJECT_NAME    = SL-3 R/B
OBJECT_ID      = 1988-032B
CENTER_NAME    = EARTH
REF_FRAME      = TEME
TIME_SYSTEM    = UTC
MEAN_ELEMENT_THEORY = SGP/SGP4

EPOCH          = 2026-02-17T06:08:28.104576
MEAN_MOTION    = 15.19643049
ECCENTRICITY   = .00245671
INCLINATION    = 97.5157
RA_OF_ASC_NODE = 31.5881
ARG_OF_PERICENTER = 308.2697
MEAN_ANOMALY   = 51.6327

EPHEMERIS_TYPE = 0
CLASSIFICATION_TYPE = U
NORAD_CAT_ID   = 19046
ELEMENT_SET_NO = 999
REV_AT_EPOCH   = 4900
BSTAR          = .29074611E-3
MEAN_MOTION_DOT = .6176E-4
MEAN_MOTION_DDOT = 0

CCSDS_OMM_VERS = 2.0
CREATION_DATE  = 
ORIGINATOR     = 

OBJECT_NAME    = SL-16 R/B
OBJECT_ID      = 1988-039B
CENTER_NAME    = EARTH
REF_FRAME      = TEME
TIME_SYSTEM    = UTC
MEAN_ELEMENT_THEORY = SGP/SGP4

EPOCH          = 2026-02-17T06:20:32.946144
MEAN_MOTION    = 14.19613561
ECCENTRICITY   = .00215082
INCLINATION    = 71.0140
RA_OF_ASC_NODE = 111.7407
ARG_OF_PERICENTER = 5.1918
MEAN_ANOMALY   = 354.9425

EPHEMERIS_TYPE = 0
CLASSIFICATION_TYPE = U
NORAD_CAT_ID   = 19120
ELEMENT_SET_NO = 999
REV_AT_EPOCH   = 95548
BSTAR          = .67512049E-4
MEAN_MOTION_DOT = .95E-6
MEAN_MOTION_DDOT = 0

CCSDS_OMM_VERS = 2.0
CREATION_DATE  = 
ORIGINATOR     = 

OBJECT_NAME    = COSMOS 1953
OBJECT_ID      = 1988-050A
CENTER_NAME    = EARTH
REF_FRAME      = TEME
TIME_SYSTEM    = UTC
MEAN_ELEMENT_THEORY = SGP/SGP4

EPOCH          = 2026-02-16T20:53:21.850656
MEAN_MOTION    = 15.28109764
ECCENTRICITY   = .00111095
INCLINATION    = 82.5104
RA_OF_ASC_NODE = 179.1733
ARG_OF_PERICENTER = 192.5730
MEAN_ANOMALY   = 167.5234

EPHEMERIS_TYPE = 0
CLASSIFICATION_TYPE = U
NORAD_CAT_ID   = 19210
ELEMENT_SET_NO = 999
REV_AT_EPOCH   = 3460
BSTAR          = .366425E-3
MEAN_MOTION_DOT = .10092E-3
MEAN_MOTION_DDOT = 0

CCSDS_OMM_VERS = 2.0
CREATION_DATE  = 
ORIGINATOR     = 

OBJECT_NAME    = SL-8 R/B
OBJECT_ID      = 1988-053B
CENTER_NAME    = EARTH
REF_FRAME      = TEME
TIME_SYSTEM    = UTC
MEAN_ELEMENT_THEORY = SGP/SGP4

EPOCH          = 2026-02-17T06:42:40.789728
MEAN_MOTION    = 14.38903093
ECCENTRICITY   = .00208051
INCLINATION    = 74.0483
RA_OF_ASC_NODE = 150.0843
ARG_OF_PERICENTER = 332.8287
MEAN_ANOMALY   = 57.2702

EPHEMERIS_TYPE = 0
CLASSIFICATION_TYPE = U
NORAD_CAT_ID   = 19257
ELEMENT_SET_NO = 999
REV_AT_EPOCH   = 97366
BSTAR          = .86000023E-4
MEAN_MOTION_DOT = .239E-5
MEAN_MOTION_DDOT = 0

CCSDS_OMM_VERS = 2.0
CREATION_DATE  = 
ORIGINATOR     = 

OBJECT_NAME    = COSMOS 1975
OBJECT_ID      = 1988-093A
CENTER_NAME    = EARTH
REF_FRAME      = TEME
TIME_SYSTEM    = UTC
MEAN_ELEMENT_THEORY = SGP/SGP4

EPOCH          = 2026-02-17T06:59:31.445088
MEAN_MOTION    = 15.27719338
ECCENTRICITY   = .00104983
INCLINATION    = 82.5223
RA_OF_ASC_NODE = 138.1519
ARG_OF_PERICENTER = 238.0281
MEAN_ANOMALY   = 121.9938

EPHEMERIS_TYPE = 0
CLASSIFICATION_TYPE = U
NORAD_CAT_ID   = 19573
ELEMENT_SET_NO = 999
REV_AT_EPOCH   = 1629
BSTAR          = .33866284E-3
MEAN_MOTION_DOT = .9217E-4
MEAN_MOTION_DDOT = 0

CCSDS_OMM_VERS = 2.0
CREATION_DATE  = 
ORIGINATOR     = 

OBJECT_NAME    = SL-14 R/B
OBJECT_ID      = 1988-093B
CENTER_NAME    = EARTH
REF_FRAME      = TEME
TIME_SYSTEM    = UTC
MEAN_ELEMENT_THEORY = SGP/SGP4

EPOCH          = 2026-02-17T02:53:45.043008
MEAN_MOTION    = 14.85631866
ECCENTRICITY   = .00222908
INCLINATION    = 82.5278
RA_OF_ASC_NODE = 61.3577
ARG_OF_PERICENTER = 105.1829
MEAN_ANOMALY   = 321.0556

EPHEMERIS_TYPE = 0
CLASSIFICATION_TYPE = U
NORAD_CAT_ID   = 19574
ELEMENT_SET_NO = 999
REV_AT_EPOCH   = 99798
BSTAR          = .59858817E-4
MEAN_MOTION_DOT = .545E-5
MEAN_MOTION_DDOT = 0

CCSDS_OMM_VERS = 2.0
CREATION_DATE  = 
ORIGINATOR     = 

OBJECT_NAME    = SL-16 R/B
OBJECT_ID      = 1988-102B
CENTER_NAME    = EARTH
REF_FRAME      = TEME
TIME_SYSTEM    = UTC
MEAN_ELEMENT_THEORY = SGP/SGP4

EPOCH          = 2026-02-16T22:13:55.414848
MEAN_MOTION    = 14.16151790
ECCENTRICITY   = .0012874
INCLINATION    = 70.9991
RA_OF_ASC_NODE = 195.1810
ARG_OF_PERICENTER = 34.5402
MEAN_ANOMALY   = 325.6555

EPHEMERIS_TYPE = 0
CLASSIFICATION_TYPE = U
NORAD_CAT_ID   = 19650
ELEMENT_SET_NO = 999
REV_AT_EPOCH   = 92395
BSTAR          = .74138E-4
MEAN_MOTION_DOT = .99E-6
MEAN_MOTION_DDOT = 0

CCSDS_OMM_VERS = 2.0
CREATION_DATE  = 
ORIGINATOR     = 

OBJECT_NAME    = INTERCOSMOS 24
OBJECT_ID      = 1989-080A
CENTER_NAME    = EARTH
REF_FRAME      = TEME
TIME_SYSTEM    = UTC
MEAN_ELEMENT_THEORY = SGP/SGP4

EPOCH          = 2026-02-17T05:32:13.148736
MEAN_MOTION    = 12.59527304
ECCENTRICITY   = .11875004
INCLINATION    = 82.6054
RA_OF_ASC_NODE = 117.7233
ARG_OF_PERICENTER = 340.3439
MEAN_ANOMALY   = 15.5295

EPHEMERIS_TYPE = 0
CLASSIFICATION_TYPE = U
NORAD_CAT_ID   = 20261
ELEMENT_SET_NO = 999
REV_AT_EPOCH   = 66422
BSTAR          = .17104669E-3
MEAN_MOTION_DOT = .585E-5
MEAN_MOTION_DDOT = 0

CCSDS_OMM_VERS = 2.0
CREATION_DATE  = 
ORIGINATOR     = 

OBJECT_NAME    = SL-14 R/B
OBJECT_ID      = 1989-080C
CENTER_NAME    = EARTH
REF_FRAME      = TEME
TIME_SYSTEM    = UTC
MEAN_ELEMENT_THEORY = SGP/SGP4

EPOCH          = 2026-02-17T07:27:51.454944
MEAN_MOTION    = 12.50466562
ECCENTRICITY   = .12296861
INCLINATION    = 82.5956
RA_OF_ASC_NODE = 186.2664
ARG_OF_PERICENTER = 231.3388
MEAN_ANOMALY   = 117.1309

EPHEMERIS_TYPE = 0
CLASSIFICATION_TYPE = U
NORAD_CAT_ID   = 20262
ELEMENT_SET_NO = 999
REV_AT_EPOCH   = 65760
BSTAR          = .15869359E-3
MEAN_MOTION_DOT = .527E-5
MEAN_MOTION_DDOT = 0

CCSDS_OMM_VERS = 2.0
CREATION_DATE  = 
ORIGINATOR     = 

OBJECT_NAME    = DELTA 1 R/B
OBJECT_ID      = 1989-089B
CENTER_NAME    = EARTH
REF_FRAME      = TEME
TIME_SYSTEM    = UTC
MEAN_ELEMENT_THEORY = SGP/SGP4

EPOCH          = 2026-02-17T03:14:03.372000
MEAN_MOTION    = 14.50645885
ECCENTRICITY   = .00688654
INCLINATION    = 97.0720
RA_OF_ASC_NODE = 258.8407
ARG_OF_PERICENTER = 186.4322
MEAN_ANOMALY   = 173.5999

EPHEMERIS_TYPE = 0
CLASSIFICATION_TYPE = U
NORAD_CAT_ID   = 20323
ELEMENT_SET_NO = 999
REV_AT_EPOCH   = 89275
BSTAR          = .10712027E-3
MEAN_MOTION_DOT = .398E-5
MEAN_MOTION_DDOT = 0

CCSDS_OMM_VERS = 2.0
CREATION_DATE  = 
ORIGINATOR     = 

OBJECT_NAME    = ARIANE 40 R/B
OBJECT_ID      = 1990-005H
CENTER_NAME    = EARTH
REF_FRAME      = TEME
TIME_SYSTEM    = UTC
MEAN_ELEMENT_THEORY = SGP/SGP4

EPOCH          = 2026-02-17T04:11:23.066592
MEAN_MOTION    = 14.39856604
ECCENTRICITY   = .00088984
INCLINATION    = 98.3129
RA_OF_ASC_NODE = 109.4426
ARG_OF_PERICENTER = 265.1465
MEAN_ANOMALY   = 94.8708

EPHEMERIS_TYPE = 0
CLASSIFICATION_TYPE = U
NORAD_CAT_ID   = 20443
ELEMENT_SET_NO = 999
REV_AT_EPOCH   = 88985
BSTAR          = .11089006E-3
MEAN_MOTION_DOT = .306E-5
MEAN_MOTION_DDOT = 0

