COSMOS 1933             
1 18958U 88020A   26048.09021520  .00005010  00000+0  24645-3 0  9997
2 18958  82.5109 271.2951 0002653 276.6134  83.4798 15.17799566 47107
SL-3 R/B                
1 19046U 88032B   26048.25588084  .00006176  00000+0  29075-3 0  9996
2 19046  97.5157  31.5881 0024567 308.2697  51.6327 15.19643049 49000
SL-16 R/B               
1 19120U 88039B   26048.26427021  .00000095  00000+0  67512-4 0  9993
2 19120  71.0140 111.7407 0021508   5.1918 354.9425 14.19613561955489
COSMOS 1953             
1 19210U 88050A   26047.87039179  .00010092  00000+0  36642-3 0  9992
2 19210  82.5104 179.1733 0011109 192.5730 167.5234 15.28109764 34609
SL-8 R/B                
1 19257U 88053B   26048.27963877  .00000239  00000+0  86000-4 0  9998
2 19257  74.0483 150.0843 0020805 332.8287  57.2702 14.38903093973665
COSMOS 1975             
1 19573U 88093A   26048.29133617  .00009217  00000+0  33866-3 0  9992
2 19573  82.5223 138.1519 0010498 238.0281 121.9938 15.27719338 16290
SL-14 R/B               
1 19574U 88093B   26048.12066022  .00000545  00000+0  59859-4 0  9996
2 19574  82.5278  61.3577 0022290 105.1829 321.0556 14.85631866997982
SL-16 R/B               
1 19650U 88102B   26047.92633582  .00000099  00000+0  74138-4 0  9991
2 19650  70.9991 195.1810 0012874  34.5402 325.6555 14.16151790923957
INTERCOSMOS 24          
1 20261U 89080A   26048.23070774  .00000585  00000+0  17105-3 0  9990
2 20261  82.6054 117.7233 1187500 340.3439  15.5295 12.59527304664225
SL-14 R/B               
1 20262U 89080C   26048.31101221  .00000527  00000+0  15869-3 0  9993
2 20262  82.5956 186.2664 1229686 231.3388 117.1309 12.50466562657607
DELTA 1 R/B             
1 20323U 89089B   26048.13476125  .00000398  00000+0  10712-3 0  9996
2 20323  97.0720 258.8407 0068865 186.4322 173.5999 14.50645885892750
ARIANE 40 R/B           
1 20443U 90005H   26048.17457253  .00000306  00000+0  11089-3 0  9991
2 20443  98.3129 109.4426 0008898 265.1465  94.8708 14.39856604889855
